     2.100          NAVIGATION                              RINEX VERSION / TYPE
fic2rin                                 08/06/2009 01:39:44 PGM / RUN BY / DATE
                                                            END OF HEADER
30 09  8  5  1 59 44.0  .166292767972D-03  .284217094304D-11  .000000000000D+00
     .320000000000D+02 -.107687500000D+03  .463233581252D-08 -.442286397221D+00
    -.573508441448D-05  .117391406093D-01  .738352537155D-05  .515356799889D+04
     .266384000000D+06 -.137835741043D-06  .249660332521D+01  .111758708954D-06
     .952973976700D+00  .240281250000D+03  .143523563594D+01 -.833070415012D-08
    -.460733477113D-10  .100000000000D+01  .154300000000D+04  .000000000000D+00
     .240000000000D+01  .000000000000D+00 -.838190317154D-08  .320000000000D+02
     .261696000000D+06  .400000000000D+01
21 09  8  5  1 59 44.0 -.128382816911D-05 -.216004991671D-11  .000000000000D+00
     .200000000000D+01  .587500000000D+01  .584131474278D-08  .110395067152D+01
     .594183802605D-06  .154849155806D-01  .459328293800D-05  .515375768089D+04
     .266384000000D+06 -.167638063431D-07 -.163234263481D+01  .204890966415D-06
     .933239775034D+00  .278812500000D+03 -.256950923600D+01 -.883786813268D-08
    -.204294223960D-09  .100000000000D+01  .154300000000D+04  .000000000000D+00
     .240000000000D+01  .000000000000D+00 -.121071934700D-07  .200000000000D+01
     .264636000000D+06  .400000000000D+01
17 09  8  5  1 59 44.0  .751032494009D-04  .261479726760D-11  .000000000000D+00
     .170000000000D+02 -.490625000000D+01  .455197532233D-08 -.149067247183D+01
    -.193715095520D-06  .460332445800D-02  .102929770947D-04  .515371956825D+04
     .266384000000D+06  .819563865662D-07 -.267864513225D+01  .279396772385D-07
     .960093867329D+00  .179218750000D+03 -.263497196004D+01 -.784425531615D-08
     .674670959896D-09  .100000000000D+01  .154300000000D+04  .000000000000D+00
     .240000000000D+01  .000000000000D+00 -.102445483208D-07  .170000000000D+02
     .264876000000D+06  .400000000000D+01
28 09  8  5  1 59 44.0 -.261338427663D-04 -.113686837722D-12  .000000000000D+00
     .500000000000D+01 -.122500000000D+03  .427374944739D-08 -.949040505975D+00
    -.600330531597D-05  .149944711011D-01  .828690826893D-05  .515365650177D+04
     .266384000000D+06  .223517417908D-07  .257061482317D+01  .350177288055D-06
     .967542029461D+00  .223593750000D+03 -.202119054224D+01 -.808855120634D-08
    -.796461747257D-10  .100000000000D+01  .154300000000D+04  .000000000000D+00
     .240000000000D+01  .000000000000D+00 -.107102096081D-07  .500000000000D+01
     .266166000000D+06  .400000000000D+01
 3 09  8  5  3 59 44.0  .429476611316D-03  .511590769747D-11  .000000000000D+00
     .300000000000D+01 -.575000000000D+01  .512735643212D-08 -.178221412428D+01
    -.454485416412D-06  .121810565470D-01  .994093716145D-05  .515364671707D+04
     .273584000000D+06  .201165676117D-06 -.281201120753D+01 -.108033418655D-06
     .926835570262D+00  .162593750000D+03  .921217743937D+00 -.804533512050D-08
     .627883296717D-09  .100000000000D+01  .154300000000D+04  .000000000000D+00
     .240000000000D+01  .000000000000D+00 -.419095158577D-08  .300000000000D+01
     .266406000000D+06  .400000000000D+01
17 09  8  5  3 59 44.0  .751223415136D-04  .261479726760D-11  .000000000000D+00
     .330000000000D+02 -.212500000000D+01  .455983279248D-08 -.440598515988D+00
     .558793544769D-07  .460312201176D-02  .104866921902D-04  .515371878624D+04
     .273584000000D+06  .335276126862D-07 -.267870163600D+01  .894069671631D-07
     .960098418467D+00  .177906250000D+03 -.263489257918D+01 -.790675791963D-08
     .658598861858D-09  .100000000000D+01  .154300000000D+04  .000000000000D+00
     .240000000000D+01  .000000000000D+00 -.102445483208D-07  .330000000000D+02
     .266406000000D+06  .400000000000D+01
21 09  8  5  3 59 44.0 -.129966065288D-05 -.216004991671D-11  .000000000000D+00
     .200000000000D+02  .493750000000D+01  .573952478853D-08  .215408113257D+01
     .176951289177D-06  .154848906677D-01  .472739338875D-05  .515375792694D+04
     .273584000000D+06 -.409781932831D-06 -.163240729872D+01 -.100582838058D-06
     .933240374830D+00  .278937500000D+03 -.256949968607D+01 -.851071164816D-08
     .960754304987D-10  .100000000000D+01  .154300000000D+04  .000000000000D+00
     .240000000000D+01  .000000000000D+00 -.121071934700D-07  .200000000000D+02
     .266406000000D+06  .400000000000D+01
28 09  8  5  3 59 44.0 -.261347740889D-04 -.113686837722D-12  .000000000000D+00
     .600000000000D+01 -.116281250000D+03  .416481633846D-08  .101171806806D+00
    -.611506402493D-05  .149952947395D-01  .842288136482D-05  .515365823174D+04
     .273584000000D+06 -.203028321266D-06  .257055615576D+01  .234693288803D-06
     .967541227781D+00  .224531250000D+03 -.202121403524D+01 -.814391065514D-08
    -.120004998690D-09  .100000000000D+01  .154300000000D+04  .000000000000D+00
     .240000000000D+01  .000000000000D+00 -.107102096081D-07  .600000000000D+01
     .266406000000D+06  .400000000000D+01
30 09  8  5  3 59 44.0  .166313257068D-03  .284217094304D-11  .000000000000D+00
     .330000000000D+02 -.113906250000D+03  .456804742037D-08  .607929451433D+00
    -.613927841187D-05  .117386991624D-01  .695884227753D-05  .515356723595D+04
     .273584000000D+06 -.135973095894D-06  .249654418235D+01 -.987201929092D-07
     .952973112115D+00  .242812500000D+03  .143526611584D+01 -.833034699239D-08
    -.210008747707D-09  .100000000000D+01  .154300000000D+04  .000000000000D+00
     .240000000000D+01  .000000000000D+00 -.838190317154D-08  .330000000000D+02
     .266406000000D+06  .400000000000D+01
 1 09  8  5  4  0  0.0 -.603348016739D-04  .216004991671D-11  .000000000000D+00
     .780000000000D+02 -.116281250000D+03  .555701718636D-08  .101700163077D+01
    -.622682273388D-05  .367863883730D-02  .718608498573D-05  .515374081230D+04
     .273600000000D+06 -.391155481339D-07  .253287019230D+01 -.316649675369D-07
     .961787487589D+00  .240156250000D+03  .947077182138D+00 -.803676333488D-08
    -.159292349451D-09  .100000000000D+01  .154300000000D+04  .000000000000D+00
     .240000000000D+01  .630000000000D+02 -.130385160446D-07  .780000000000D+02
     .266406000000D+06  .400000000000D+01
 2 09  8  5  4  0  0.0  .163525342941D-03  .204636307899D-11  .000000000000D+00
     .590000000000D+02  .262500000000D+01  .562844873320D-08 -.149312794910D+01
     .145286321640D-06  .906358822249D-02  .465288758278D-05  .515367943001D+04
     .273600000000D+06  .279396772385D-07 -.166339105514D+01 -.176951289177D-06
     .940515905314D+00  .279343750000D+03  .287444992191D+01 -.857107130524D-08
     .177507393895D-09  .100000000000D+01  .154300000000D+04  .000000000000D+00
     .240000000000D+01  .000000000000D+00 -.172294676304D-07  .590000000000D+02
     .266406000000D+06  .400000000000D+01
 4 09  8  5  4  0  0.0 -.205568037927D-03 -.168256519828D-10  .000000000000D+00
     .750000000000D+02  .559375000000D+01  .568166523559D-08  .137081147841D+01
     .527128577232D-06  .864824769087D-02  .475905835629D-05  .515376977539D+04
     .273600000000D+06 -.111758708954D-07 -.164509430800D+01  .173225998878D-06
     .939710336307D+00  .278218750000D+03  .499162829347D+00 -.862214486123D-08
    -.360729311538D-10  .100000000000D+01  .154300000000D+04  .000000000000D+00
     .240000000000D+01  .000000000000D+00 -.605359673500D-08  .750000000000D+02
     .266406000000D+06  .400000000000D+01
 6 09  8  5  4  0  0.0  .211110804230D-03  .943600753089D-11  .000000000000D+00
     .310000000000D+02 -.659375000000D+01  .508878339683D-08  .595419225555D+00
    -.406056642532D-06  .593321071938D-02  .102333724499D-04  .515370058823D+04
     .273600000000D+06 -.651925802231D-07 -.274387956939D+01 -.856816768646D-07
     .934247371564D+00  .168125000000D+03 -.129410144518D+01 -.827141596625D-08
     .548237121991D-09  .100000000000D+01  .154300000000D+04  .000000000000D+00
     .240000000000D+01  .000000000000D+00 -.465661287308D-08  .310000000000D+02
     .266406000000D+06  .400000000000D+01
 7 09  8  5  4  0  0.0  .139740295708D-04 -.682121026330D-12  .000000000000D+00
     .380000000000D+02  .953125000000D+01  .452018828399D-08  .311933822443D+01
     .558793544769D-06  .295051443391D-02  .670552253723D-06  .515365686226D+04
     .273600000000D+06 -.484287738800D-07  .149253453540D+01 -.279396772385D-07
     .967961579737D+00  .370031250000D+03  .289548442368D+01 -.836356266167D-08
     .389301930274D-10  .100000000000D+01  .154300000000D+04  .000000000000D+00
     .240000000000D+01  .000000000000D+00 -.107102096081D-07  .380000000000D+02
     .266406000000D+06  .400000000000D+01
 8 09  8  5  4  0  0.0 -.215192791075D-03 -.181898940355D-11  .000000000000D+00
     .630000000000D+02 -.409375000000D+01  .403802534282D-08  .240755815838D+01
    -.175088644028D-06  .108060216298D-01  .989064574242D-06  .515363095665D+04
     .273600000000D+06 -.135973095894D-06  .155435822293D+01  .122934579849D-06
     .989171283503D+00  .377593750000D+03  .300353330597D+01 -.808962267954D-08
    -.946467995620D-10  .100000000000D+01  .154300000000D+04  .000000000000D+00
     .240000000000D+01  .000000000000D+00 -.372529029846D-08  .630000000000D+02
     .266406000000D+06  .400000000000D+01
 9 09  8  5  4  0  0.0  .702664256096D-04  .204636307899D-11  .000000000000D+00
     .110000000000D+03  .251562500000D+02  .412767193410D-08  .216166875468D+01
     .936910510063D-06  .207672585966D-01  .154599547386D-06  .515363165855D+04
     .273600000000D+06  .283122062683D-06  .145899496308D+01 -.139698386192D-06
     .976855058117D+00  .380343750000D+03  .150137200450D+01 -.799497587998D-08
     .367872466222D-10  .100000000000D+01  .154300000000D+04  .000000000000D+00
     .340000000000D+01  .000000000000D+00 -.558793544769D-08  .110000000000D+03
     .266406000000D+06  .400000000000D+01
